[{"OBJECT_NAME":"STARLINK-3892","OBJECT_ID":"2022-049AP","EPOCH":"2026-03-09T22:40:22.845504","MEAN_MOTION":15.08828199,"ECCENTRICITY":0.00013756,"INCLINATION":53.217,"RA_OF_ASC_NODE":57.9751,"ARG_OF_PERICENTER":119.3818,"MEAN_ANOMALY":240.7312,"EPHEMERIS_TYPE":0,"CLASSIFICATION_TYPE":"U","NORAD_CAT_ID":52488,"ELEMENT_SET_NO":999,"REV_AT_EPOCH":21229,"BSTAR":0.00013469529,"MEAN_MOTION_DOT":1.856e-5,"MEAN_MOTION_DDOT":0},{"OBJECT_NAME":"CZ-4B DEB","OBJECT_ID":"2004-035K","EPOCH":"2026-03-08T06:51:30.377664","MEAN_MOTION":15.09293825,"ECCENTRICITY":0.00031468,"INCLINATION":97.5843,"RA_OF_ASC_NODE":91.2716,"ARG_OF_PERICENTER":107.6302,"MEAN_ANOMALY":252.527,"EPHEMERIS_TYPE":0,"CLASSIFICATION_TYPE":"U","NORAD_CAT_ID":29043,"ELEMENT_SET_NO":999,"REV_AT_EPOCH":10418,"BSTAR":0.00031897975,"MEAN_MOTION_DOT":5.021e-5,"MEAN_MOTION_DDOT":0}]
